S-NET C                 
1 43189U 18014K   26138.25650639  .00003041  00000+0  16015-3 0  9998
2 43189  97.5420  43.4967 0011930 107.9208 252.3326 15.16323014452772
PAZ                     
1 43215U 18020A   26138.46627534  .00001145  00000+0  57728-4 0  9996
2 43215  97.4455 146.2745 0001660  88.6602 271.4823 15.19148906456492
GOES 17                 
1 43226U 18022A   26138.53122141 -.00000180  00000+0  00000+0 0  9997
2 43226   0.8634  86.1012 0000361 312.4728 299.3976  1.00271580 30120
LKW-4                   
1 43236U 18025A   26138.46390389  .00024554  00000+0  30672-3 0  9996
2 43236  97.6335 307.0698 0002928  71.1958 288.9615 15.59845689455393
ZHUHAI-1 OVS-02         
1 43440U 18040B   26138.50358713  .00004305  00000+0  17729-3 0  9990
2 43440  97.0402 157.5010 0004212  35.4790 324.6728 15.24590684448197
ZHUHAI-1 OHS-02         
1 43441U 18040C   26138.50495524  .00004991  00000+0  20006-3 0  9996
2 43441  97.0388 164.4123 0008531 349.3721  10.7336 15.25409126109757
GAOFEN-6                
1 43484U 18048A   26138.52594483  .00000297  00000+0  49560-4 0  9999
2 43484  97.7776 202.2941 0010483 271.7113  88.2897 14.76592482429012
LUOJIA-1 01             
1 43485U 18048B   26138.50340847  .00001883  00000+0  21533-3 0  9992
2 43485  97.8106 217.1697 0008204 210.5436 149.5303 14.87162564429807
PAKTES 1A               
1 43529U 18056A   26138.56725118  .00001958  00000+0  16660-3 0  9992
2 43529  98.1225 293.7988 0021588 204.9393 155.0787 14.98920550427483
PRSS-1                  
1 43530U 18056B   26138.48133709  .00000765  00000+0  10300-3 0  9994
2 43530  97.7834 207.1724 0001856  92.0188 268.1238 14.81937497424032
HAIYANG-1C              
1 43609U 18068A   26138.52443439  .00000231  00000+0  97962-4 0  9991
2 43609  98.5202 211.2594 0010909 176.0485 184.0788 14.34169455402839
SSTL S1-4               
1 43618U 18071A   26138.52802699  .00001117  00000+0  10398-3 0  9993
2 43618  97.5067  11.3701 0001331  77.7305 282.4066 14.96176681418503
HAIYANG-2B              
1 43655U 18081A   26138.49466719  .00000075  00000+0  11568-3 0  9992
2 43655  99.3288 147.6984 0001540  45.7019 314.4259 13.79307116380837
CFOSAT                  
1 43662U 18083A   26138.53125003  .00001995  00000+0  10575-3 0  9994
2 43662  97.3609 143.9358 0001580  61.7415 298.3978 15.16500919417946
TEN-KOH                 
1 43677U 18084G   26138.49524256  .00001024  00000+0  81510-4 0  9990
2 43677  98.0751 329.6111 0008841 213.2577 146.8093 15.02785927411700
DIWATA-2B               
1 43678U 18084H   26138.49228125  .00002053  00000+0  16889-3 0  9996
2 43678  98.1106 333.4249 0011727 273.0029  86.9851 15.00295496411761
STARS-AO                
1 43679U 18084J   26138.52054532  .00003884  00000+0  20213-3 0  9999
2 43679  98.0526 350.6671 0000639 254.8333 105.2828 15.16691941412977
AUTCUBE 2               
1 43681U 18084K   26138.47631865  .00001944  00000+0  12437-3 0  9990
2 43681  98.0728 343.0773 0010035 137.1335 223.0677 15.09864927412440
METOP-C                 
1 43689U 18087A   26138.50524845  .00000071  00000+0  52322-4 0  9992
2 43689  98.6660 198.6486 0000457 144.9102 215.2105 14.21503286390613
ES'HAIL 2               
1 43700U 18090A   26138.53056514  .00000000  00000+0  00000+0 0  9999
2 43700   0.0155 318.7165 0001232 127.8255   6.4750  1.00269490 27389
MOHAMMED VI-B           
1 43717U 18095A   26138.50610566  .00000839  00000+0  12606-3 0  9991
2 43717  97.9568 211.2380 0001273  82.3281 277.8074 14.77076183403806
HYSIS                   
1 43719U 18096A   26138.50435573  .00000880  00000+0  12727-3 0  9997
2 43719  97.9854 205.4822 0000985 113.3804 246.7511 14.78627635403038
COSMOS 2530 (RODNIK-S *)
1 43751U 18097A   26138.51219212 -.00000062  00000+0 -51925-3 0  9992
2 43751  82.5158 240.6946 0020798 101.3913 258.9505 12.42880033338601
COSMOS 2531 (RODNIK-S *)
1 43752U 18097B   26138.53520221 -.00000045  00000+0 -40087-3 0  9998
2 43752  82.5203 241.7288 0017935 119.1468 241.1409 12.42911646338629
COSMOS 2532 (RODNIK-S *)
1 43753U 18097C   26138.56340245 -.00000091  00000+0 -72644-3 0  9993
2 43753  82.5148 240.5107 0019309 121.1835 239.1140 12.42908252338597
MINXSS-2                
1 43758U 18099A   26138.18530765  .00019587  00000+0  41937-3 0  9995
2 43758  97.4546 213.6393 0006951  25.4631 334.6959 15.44800496409499
SIRION PATHFINDER-2     
1 43759U 18099B   26138.38207869  .00002718  00000+0  15208-3 0  9994
2 43759  97.4270 188.1510 0009933  51.7569 308.4555 15.14250244408112
AISTECHSAT 2            
1 43768U 18099L   26138.37263172  .00003104  00000+0  16917-3 0  9990
2 43768  97.4313 187.0629 0005914  57.3112 302.8690 15.15113932407761
FOX-1CLIFF (AO-95)      
1 43770U 18099N   26138.11784358  .00008462  00000+0  33132-3 0  9999
2 43770  97.4401 198.4882 0010481  96.2456 263.9976 15.26003786408635
