OBJECT_NAME,OBJECT_ID,EPOCH,MEAN_MOTION,ECCENTRICITY,INCLINATION,RA_OF_ASC_NODE,ARG_OF_PERICENTER,MEAN_ANOMALY,EPHEMERIS_TYPE,CLASSIFICATION_TYPE,NORAD_CAT_ID,ELEMENT_SET_NO,REV_AT_EPOCH,BSTAR,MEAN_MOTION_DOT,MEAN_MOTION_DDOT
S-NET C,2018-014K,2026-05-18T06:09:22.152096,15.16323014,.001193,97.5420,43.4967,107.9208,252.3326,0,U,43189,999,45277,.16015E-3,.3041E-4,0
PAZ,2018-020A,2026-05-18T11:11:26.189376,15.19148906,.000166,97.4455,146.2745,88.6602,271.4823,0,U,43215,999,45649,.57728E-4,.1145E-4,0
GOES 17,2018-022A,2026-05-18T12:44:57.529824,1.00271580,.0000361,0.8634,86.1012,312.4728,299.3976,0,U,43226,999,3012,0,-.18E-5,0
LKW-4,2018-025A,2026-05-18T11:08:01.296096,15.59845689,.0002928,97.6335,307.0698,71.1958,288.9615,0,U,43236,999,45539,.30672E-3,.24554E-3,0
ZHUHAI-1 OVS-02,2018-040B,2026-05-18T12:05:09.928032,15.24590684,.0004212,97.0402,157.5010,35.4790,324.6728,0,U,43440,999,44819,.17729E-3,.4305E-4,0
ZHUHAI-1 OHS-02,2018-040C,2026-05-18T12:07:08.132736,15.25409126,.0008531,97.0388,164.4123,349.3721,10.7336,0,U,43441,999,10975,.20006E-3,.4991E-4,0
GAOFEN-6,2018-048A,2026-05-18T12:37:21.633312,14.76592482,.0010483,97.7776,202.2941,271.7113,88.2897,0,U,43484,999,42901,.4956E-4,.297E-5,0
LUOJIA-1 01,2018-048B,2026-05-18T12:04:54.491808,14.87162564,.0008204,97.8106,217.1697,210.5436,149.5303,0,U,43485,999,42980,.21533E-3,.1883E-4,0
PAKTES 1A,2018-056A,2026-05-18T13:36:50.501952,14.98920550,.0021588,98.1225,293.7988,204.9393,155.0787,0,U,43529,999,42748,.1666E-3,.1958E-4,0
PRSS-1,2018-056B,2026-05-18T11:33:07.524576,14.81937497,.0001856,97.7834,207.1724,92.0188,268.1238,0,U,43530,999,42403,.103E-3,.765E-5,0
HAIYANG-1C,2018-068A,2026-05-18T12:35:11.131296,14.34169455,.0010909,98.5202,211.2594,176.0485,184.0788,0,U,43609,999,40283,.97962E-4,.231E-5,0
SSTL S1-4,2018-071A,2026-05-18T12:40:21.531936,14.96176681,.0001331,97.5067,11.3701,77.7305,282.4066,0,U,43618,999,41850,.10398E-3,.1117E-4,0
HAIYANG-2B,2018-081A,2026-05-18T11:52:19.245216,13.79307116,.000154,99.3288,147.6984,45.7019,314.4259,0,U,43655,999,38083,.11568E-3,.75E-6,0
CFOSAT,2018-083A,2026-05-18T12:45:00.002592,15.16500919,.000158,97.3609,143.9358,61.7415,298.3978,0,U,43662,999,41794,.10575E-3,.1995E-4,0
TEN-KOH,2018-084G,2026-05-18T11:53:08.957184,15.02785927,.0008841,98.0751,329.6111,213.2577,146.8093,0,U,43677,999,41170,.8151E-4,.1024E-4,0
DIWATA-2B,2018-084H,2026-05-18T11:48:53.100000,15.00295496,.0011727,98.1106,333.4249,273.0029,86.9851,0,U,43678,999,41176,.16889E-3,.2053E-4,0
STARS-AO,2018-084J,2026-05-18T12:29:35.115648,15.16691941,.0000639,98.0526,350.6671,254.8333,105.2828,0,U,43679,999,41297,.20213E-3,.3884E-4,0
AUTCUBE 2,2018-084K,2026-05-18T11:25:53.931360,15.09864927,.0010035,98.0728,343.0773,137.1335,223.0677,0,U,43681,999,41244,.12437E-3,.1944E-4,0
METOP-C,2018-087A,2026-05-18T12:07:33.466080,14.21503286,.0000457,98.6660,198.6486,144.9102,215.2105,0,U,43689,999,39061,.52322E-4,.71E-6,0
ES'HAIL 2,2018-090A,2026-05-18T12:44:00.828096,1.00269490,.0001232,0.0155,318.7165,127.8255,6.4750,0,U,43700,999,2738,0,0,0
MOHAMMED VI-B,2018-095A,2026-05-18T12:08:47.529024,14.77076183,.0001273,97.9568,211.2380,82.3281,277.8074,0,U,43717,999,40380,.12606E-3,.839E-5,0
HYSIS,2018-096A,2026-05-18T12:06:16.335072,14.78627635,.0000985,97.9854,205.4822,113.3804,246.7511,0,U,43719,999,40303,.12727E-3,.88E-5,0
COSMOS 2530 (RODNIK-S 16),2018-097A,2026-05-18T12:17:33.399168,12.42880033,.0020798,82.5158,240.6946,101.3913,258.9505,0,U,43751,999,33860,-.51925E-3,-.62E-6,0
COSMOS 2531 (RODNIK-S 17),2018-097B,2026-05-18T12:50:41.470944,12.42911646,.0017935,82.5203,241.7288,119.1468,241.1409,0,U,43752,999,33862,-.40087E-3,-.45E-6,0
COSMOS 2532 (RODNIK-S 18),2018-097C,2026-05-18T13:31:17.971680,12.42908252,.0019309,82.5148,240.5107,121.1835,239.1140,0,U,43753,999,33859,-.72644E-3,-.91E-6,0
MINXSS-2,2018-099A,2026-05-18T04:26:50.580960,15.44800496,.0006951,97.4546,213.6393,25.4631,334.6959,0,U,43758,999,40949,.41937E-3,.19587E-3,0
SIRION PATHFINDER-2,2018-099B,2026-05-18T09:10:11.598816,15.14250244,.0009933,97.4270,188.1510,51.7569,308.4555,0,U,43759,999,40811,.15208E-3,.2718E-4,0
AISTECHSAT 2,2018-099L,2026-05-18T08:56:35.380608,15.15113932,.0005914,97.4313,187.0629,57.3112,302.8690,0,U,43768,999,40776,.16917E-3,.3104E-4,0
FOX-1CLIFF (AO-95),2018-099N,2026-05-18T02:49:41.685312,15.26003786,.0010481,97.4401,198.4882,96.2456,263.9976,0,U,43770,999,40863,.33132E-3,.8462E-4,0
